[
    {
        "Altitude(m)": 714835.0576802227,
        "Argument of Periapsis(deg)": 0.005695060593313534,
        "Eccentricity": 0.0,
        "Inclination(deg)": 45.0,
        "Latitude(deg)": -37.79226709343392,
        "Longitude(deg)": -85.8422954971185,
        "Mean Anomaly(deg)": -59.687891676259525,
        "RAAN(deg)": 64.99462402927091,
        "Satellite Name": "Constellation 1 304",
        "Satellite Number": 304,
        "Semi-Major Axis(m)": 7083131.272910544,
        "Time(s)": 95
    },
    {
        "Altitude(m)": 714823.7866057621,
        "Argument of Periapsis(deg)": 0.00575500859955894,
        "Eccentricity": 0.0,
        "Inclination(deg)": 45.0,
        "Latitude(deg)": -37.76490583219024,
        "Longitude(deg)": -85.77813395662328,
        "Mean Anomaly(deg)": -59.62719053600964,
        "RAAN(deg)": 64.99456744010533,
        "Satellite Name": "Constellation 1 304",
        "Satellite Number": 304,
        "Semi-Major Axis(m)": 7083131.272910544,
        "Time(s)": 96
    },
    {
        "Altitude(m)": 714812.500314374,
        "Argument of Periapsis(deg)": 0.005814956605804345,
        "Eccentricity": 0.0,
        "Inclination(deg)": 45.0,
        "Latitude(deg)": -37.7375048910962,
        "Longitude(deg)": -85.7140224232636,
        "Mean Anomaly(deg)": -59.56648939575979,
        "RAAN(deg)": 64.99451085093976,
        "Satellite Name": "Constellation 1 304",
        "Satellite Number": 304,
        "Semi-Major Axis(m)": 7083131.272910544,
        "Time(s)": 97
    },
    {
        "Altitude(m)": 714801.1988469466,
        "Argument of Periapsis(deg)": 0.00587490461204975,
        "Eccentricity": 0.0,
        "Inclination(deg)": 45.0,
        "Latitude(deg)": -37.710064337358666,
        "Longitude(deg)": -85.64996105097248,
        "Mean Anomaly(deg)": -59.50578825550988,
        "RAAN(deg)": 64.99445426177418,
        "Satellite Name": "Constellation 1 304",
        "Satellite Number": 304,
        "Semi-Major Axis(m)": 7083131.272910544,
        "Time(s)": 98
    },
    {
        "Altitude(m)": 714789.8822444144,
        "Argument of Periapsis(deg)": 0.005934852618295156,
        "Eccentricity": 0.0,
        "Inclination(deg)": 45.0,
        "Latitude(deg)": -37.682584238147726,
        "Longitude(deg)": -85.58594982526101,
        "Mean Anomaly(deg)": -59.44508711525997,
        "RAAN(deg)": 64.99439767260863,
        "Satellite Name": "Constellation 1 304",
        "Satellite Number": 304,
        "Semi-Major Axis(m)": 7083131.272910544,
        "Time(s)": 99
    },
    {
        "Altitude(m)": 714778.5505477675,
        "Argument of Periapsis(deg)": 0.005994800624540561,
        "Eccentricity": 0.0,
        "Inclination(deg)": 45.0,
        "Latitude(deg)": -37.6550646605959,
        "Longitude(deg)": -85.52198873131718,
        "Mean Anomaly(deg)": -59.38438597501006,
        "RAAN(deg)": 64.99434108344305,
        "Satellite Name": "Constellation 1 304",
        "Satellite Number": 304,
        "Semi-Major Axis(m)": 7083131.272910544,
        "Time(s)": 100
    },
    {
        "Altitude(m)": 714767.2037980412,
        "Argument of Periapsis(deg)": 0.006054748630785968,
        "Eccentricity": 0.0,
        "Inclination(deg)": 45.0,
        "Latitude(deg)": -37.627505671798076,
        "Longitude(deg)": -85.45807775400738,
        "Mean Anomaly(deg)": -59.32368483476015,
        "RAAN(deg)": 64.99428449427748,
        "Satellite Name": "Constellation 1 304",
        "Satellite Number": 304,
        "Semi-Major Axis(m)": 7083131.272910544,
        "Time(s)": 101
    },
    {
        "Altitude(m)": 714755.8420363251,
        "Argument of Periapsis(deg)": 0.006114696637031373,
        "Eccentricity": 0.0,
        "Inclination(deg)": 45.0,
        "Latitude(deg)": -37.5999073388109,
        "Longitude(deg)": -85.39421687787782,
        "Mean Anomaly(deg)": -59.26298369451029,
        "RAAN(deg)": 64.99422790511191,
        "Satellite Name": "Constellation 1 304",
        "Satellite Number": 304,
        "Semi-Major Axis(m)": 7083131.272910544,
        "Time(s)": 102
    },
    {
        "Altitude(m)": 714744.4653037571,
        "Argument of Periapsis(deg)": 0.006174644643276778,
        "Eccentricity": 0.0,
        "Inclination(deg)": 45.0,
        "Latitude(deg)": -37.57226972865254,
        "Longitude(deg)": -85.3304060871555,
        "Mean Anomaly(deg)": -59.20228255426044,
        "RAAN(deg)": 64.99417131594635,
        "Satellite Name": "Constellation 1 304",
        "Satellite Number": 304,
        "Semi-Major Axis(m)": 7083131.272910544,
        "Time(s)": 103
    },
    {
        "Altitude(m)": 714733.0736415308,
        "Argument of Periapsis(deg)": 0.006234592649522184,
        "Eccentricity": 0.0,
        "Inclination(deg)": 45.0,
        "Latitude(deg)": -37.54459290830218,
        "Longitude(deg)": -85.26664553384761,
        "Mean Anomaly(deg)": -59.14158141401048,
        "RAAN(deg)": 64.99411472678078,
        "Satellite Name": "Constellation 1 304",
        "Satellite Number": 304,
        "Semi-Major Axis(m)": 7083131.272910544,
        "Time(s)": 104
    },
    {
        "Altitude(m)": 714721.6670908867,
        "Argument of Periapsis(deg)": 0.00629454065576759,
        "Eccentricity": 0.0,
        "Inclination(deg)": 45.0,
        "Latitude(deg)": -37.51687694469987,
        "Longitude(deg)": -85.2029348653535,
        "Mean Anomaly(deg)": -59.08088027376055,
        "RAAN(deg)": 64.9940581376152,
        "Satellite Name": "Constellation 1 304",
        "Satellite Number": 304,
        "Semi-Major Axis(m)": 7083131.272910544,
        "Time(s)": 105
    },
    {
        "Altitude(m)": 714710.2456931146,
        "Argument of Periapsis(deg)": 0.006354488662012995,
        "Eccentricity": 0.0,
        "Inclination(deg)": 45.0,
        "Latitude(deg)": -37.48912190474588,
        "Longitude(deg)": -85.13927423304968,
        "Mean Anomaly(deg)": -59.02017913351064,
        "RAAN(deg)": 64.99400154844963,
        "Satellite Name": "Constellation 1 304",
        "Satellite Number": 304,
        "Semi-Major Axis(m)": 7083131.272910544,
        "Time(s)": 106
    },
    {
        "Altitude(m)": 714698.8094895544,
        "Argument of Periapsis(deg)": 0.006414436668258401,
        "Eccentricity": 0.0,
        "Inclination(deg)": 45.0,
        "Latitude(deg)": -37.46132785530058,
        "Longitude(deg)": -85.07566361990224,
        "Mean Anomaly(deg)": -58.95947799326079,
        "RAAN(deg)": 64.99394495928408,
        "Satellite Name": "Constellation 1 304",
        "Satellite Number": 304,
        "Semi-Major Axis(m)": 7083131.272910544,
        "Time(s)": 107
    },
    {
        "Altitude(m)": 714687.3585215969,
        "Argument of Periapsis(deg)": 0.0064743846745038075,
        "Eccentricity": 0.0,
        "Inclination(deg)": 45.0,
        "Latitude(deg)": -37.433494863183846,
        "Longitude(deg)": -85.0121030085654,
        "Mean Anomaly(deg)": -58.89877685301088,
        "RAAN(deg)": 64.9938883701185,
        "Satellite Name": "Constellation 1 304",
        "Satellite Number": 304,
        "Semi-Major Axis(m)": 7083131.272910544,
        "Time(s)": 108
    },
    {
        "Altitude(m)": 714675.8928306856,
        "Argument of Periapsis(deg)": 0.0065343326807492125,
        "Eccentricity": 0.0,
        "Inclination(deg)": 45.0,
        "Latitude(deg)": -37.40562299517487,
        "Longitude(deg)": -84.94859238138316,
        "Mean Anomaly(deg)": -58.83807571276097,
        "RAAN(deg)": 64.99383178095293,
        "Satellite Name": "Constellation 1 304",
        "Satellite Number": 304,
        "Semi-Major Axis(m)": 7083131.272910544,
        "Time(s)": 109
    },
    {
        "Altitude(m)": 714664.4124583076,
        "Argument of Periapsis(deg)": 0.0065942806869946176,
        "Eccentricity": 0.0,
        "Inclination(deg)": 45.0,
        "Latitude(deg)": -37.37771231801179,
        "Longitude(deg)": -84.88513172039067,
        "Mean Anomaly(deg)": -58.77737457251111,
        "RAAN(deg)": 64.99377519178735,
        "Satellite Name": "Constellation 1 304",
        "Satellite Number": 304,
        "Semi-Major Axis(m)": 7083131.272910544,
        "Time(s)": 110
    },
    {
        "Altitude(m)": 714652.9174460034,
        "Argument of Periapsis(deg)": 0.006654228693240024,
        "Eccentricity": 0.0,
        "Inclination(deg)": 45.0,
        "Latitude(deg)": -37.34976289839118,
        "Longitude(deg)": -84.82172117541249,
        "Mean Anomaly(deg)": -58.7166734322612,
        "RAAN(deg)": 64.9937186026218,
        "Satellite Name": "Constellation 1 304",
        "Satellite Number": 304,
        "Semi-Major Axis(m)": 7083131.272910544,
        "Time(s)": 111
    },
    {
        "Altitude(m)": 714641.4078353596,
        "Argument of Periapsis(deg)": 0.006714176699485429,
        "Eccentricity": 0.0,
        "Inclination(deg)": 45.0,
        "Latitude(deg)": -37.32177480296789,
        "Longitude(deg)": -84.75836039167564,
        "Mean Anomaly(deg)": -58.6559722920113,
        "RAAN(deg)": 64.99366201345622,
        "Satellite Name": "Constellation 1 304",
        "Satellite Number": 304,
        "Semi-Major Axis(m)": 7083131.272910544,
        "Time(s)": 112
    },
    {
        "Altitude(m)": 714629.8836680185,
        "Argument of Periapsis(deg)": 0.006774124705730835,
        "Eccentricity": 0.0,
        "Inclination(deg)": 45.0,
        "Latitude(deg)": -37.29374809835458,
        "Longitude(deg)": -84.69504951839401,
        "Mean Anomaly(deg)": -58.59527115176139,
        "RAAN(deg)": 64.99360542429065,
        "Satellite Name": "Constellation 1 304",
        "Satellite Number": 304,
        "Semi-Major Axis(m)": 7083131.272910544,
        "Time(s)": 113
    }
]